[{"OBJECT_NAME":"KUIPER-00127","OBJECT_ID":"2025-228K","EPOCH":"2026-03-28T18:39:33.196320","MEAN_MOTION":14.76331919,"ECCENTRICITY":0.00010414,"INCLINATION":51.8991,"RA_OF_ASC_NODE":268.1005,"ARG_OF_PERICENTER":255.3297,"MEAN_ANOMALY":104.7548,"EPHEMERIS_TYPE":0,"CLASSIFICATION_TYPE":"U","NORAD_CAT_ID":65956,"ELEMENT_SET_NO":999,"REV_AT_EPOCH":2617,"BSTAR":0.00043668921,"MEAN_MOTION_DOT":2.845e-5,"MEAN_MOTION_DDOT":0},{"OBJECT_NAME":"KUIPER-00128","OBJECT_ID":"2025-228L","EPOCH":"2026-03-28T16:18:14.679648","MEAN_MOTION":14.79937497,"ECCENTRICITY":7.192e-5,"INCLINATION":51.9,"RA_OF_ASC_NODE":269.1487,"ARG_OF_PERICENTER":107.1491,"MEAN_ANOMALY":252.955,"EPHEMERIS_TYPE":0,"CLASSIFICATION_TYPE":"U","NORAD_CAT_ID":65957,"ELEMENT_SET_NO":999,"REV_AT_EPOCH":2614,"BSTAR":-0.00011987745,"MEAN_MOTION_DOT":-1.135e-5,"MEAN_MOTION_DDOT":0},{"OBJECT_NAME":"KUIPER-00129","OBJECT_ID":"2025-228M","EPOCH":"2026-03-28T18:51:53.894016","MEAN_MOTION":14.79993297,"ECCENTRICITY":0.00010105,"INCLINATION":51.9002,"RA_OF_ASC_NODE":263.6606,"ARG_OF_PERICENTER":108.8992,"MEAN_ANOMALY":251.208,"EPHEMERIS_TYPE":0,"CLASSIFICATION_TYPE":"U","NORAD_CAT_ID":65958,"ELEMENT_SET_NO":999,"REV_AT_EPOCH":2623,"BSTAR":0.00060660577,"MEAN_MOTION_DOT":4.413e-5,"MEAN_MOTION_DDOT":0},{"OBJECT_NAME":"KUIPER-00130","OBJECT_ID":"2025-228N","EPOCH":"2026-03-28T17:59:26.165760","MEAN_MOTION":14.7993585,"ECCENTRICITY":6.66e-5,"INCLINATION":51.9016,"RA_OF_ASC_NODE":266.3327,"ARG_OF_PERICENTER":109.1943,"MEAN_ANOMALY":250.9091,"EPHEMERIS_TYPE":0,"CLASSIFICATION_TYPE":"U","NORAD_CAT_ID":65959,"ELEMENT_SET_NO":999,"REV_AT_EPOCH":1648,"BSTAR":0.00056611,"MEAN_MOTION_DOT":4.097e-5,"MEAN_MOTION_DDOT":0},{"OBJECT_NAME":"KUIPER-00134","OBJECT_ID":"2025-228P","EPOCH":"2026-03-29T04:45:00.454752","MEAN_MOTION":15.39307402,"ECCENTRICITY":0.0005452,"INCLINATION":51.8722,"RA_OF_ASC_NODE":225.8263,"ARG_OF_PERICENTER":26.1013,"MEAN_ANOMALY":334.0248,"EPHEMERIS_TYPE":0,"CLASSIFICATION_TYPE":"U","NORAD_CAT_ID":65960,"ELEMENT_SET_NO":999,"REV_AT_EPOCH":2679,"BSTAR":0.0016376,"MEAN_MOTION_DOT":0.00065081,"MEAN_MOTION_DDOT":0},{"OBJECT_NAME":"KUIPER-00135","OBJECT_ID":"2025-228Q","EPOCH":"2026-03-29T04:31:31.498464","MEAN_MOTION":14.79938357,"ECCENTRICITY":6.77e-5,"INCLINATION":51.9014,"RA_OF_ASC_NODE":264.4532,"ARG_OF_PERICENTER":104.2886,"MEAN_ANOMALY":255.8151,"EPHEMERIS_TYPE":0,"CLASSIFICATION_TYPE":"U","NORAD_CAT_ID":65961,"ELEMENT_SET_NO":999,"REV_AT_EPOCH":2625,"BSTAR":0.00073174,"MEAN_MOTION_DOT":5.362e-5,"MEAN_MOTION_DDOT":0},{"OBJECT_NAME":"KUIPER-00136","OBJECT_ID":"2025-228R","EPOCH":"2026-03-28T18:03:19.203840","MEAN_MOTION":14.79932111,"ECCENTRICITY":7.675e-5,"INCLINATION":51.8996,"RA_OF_ASC_NODE":263.8522,"ARG_OF_PERICENTER":137.5907,"MEAN_ANOMALY":222.5115,"EPHEMERIS_TYPE":0,"CLASSIFICATION_TYPE":"U","NORAD_CAT_ID":65962,"ELEMENT_SET_NO":999,"REV_AT_EPOCH":2622,"BSTAR":0.00056124518,"MEAN_MOTION_DOT":4.06e-5,"MEAN_MOTION_DDOT":0},{"OBJECT_NAME":"KUIPER-00137","OBJECT_ID":"2025-228S","EPOCH":"2026-03-29T03:50:33.177408","MEAN_MOTION":14.7993563,"ECCENTRICITY":2.15e-5,"INCLINATION":51.9023,"RA_OF_ASC_NODE":259.5143,"ARG_OF_PERICENTER":84.2537,"MEAN_ANOMALY":275.845,"EPHEMERIS_TYPE":0,"CLASSIFICATION_TYPE":"U","NORAD_CAT_ID":65963,"ELEMENT_SET_NO":999,"REV_AT_EPOCH":2632,"BSTAR":0.000265,"MEAN_MOTION_DOT":1.8e-5,"MEAN_MOTION_DDOT":0},{"OBJECT_NAME":"KUIPER-00138","OBJECT_ID":"2025-228T","EPOCH":"2026-03-29T04:42:56.687616","MEAN_MOTION":14.79962432,"ECCENTRICITY":7.81e-5,"INCLINATION":51.8982,"RA_OF_ASC_NODE":256.8304,"ARG_OF_PERICENTER":105.609,"MEAN_ANOMALY":254.4958,"EPHEMERIS_TYPE":0,"CLASSIFICATION_TYPE":"U","NORAD_CAT_ID":65964,"ELEMENT_SET_NO":999,"REV_AT_EPOCH":2636,"BSTAR":0.00076472,"MEAN_MOTION_DOT":5.617e-5,"MEAN_MOTION_DDOT":0},{"OBJECT_NAME":"KUIPER-00140","OBJECT_ID":"2025-228U","EPOCH":"2026-03-29T04:39:16.371072","MEAN_MOTION":14.79945977,"ECCENTRICITY":6.89e-5,"INCLINATION":51.8995,"RA_OF_ASC_NODE":259.4266,"ARG_OF_PERICENTER":115.9048,"MEAN_ANOMALY":244.1985,"EPHEMERIS_TYPE":0,"CLASSIFICATION_TYPE":"U","NORAD_CAT_ID":65965,"ELEMENT_SET_NO":999,"REV_AT_EPOCH":2632,"BSTAR":0.00075563,"MEAN_MOTION_DOT":5.546e-5,"MEAN_MOTION_DDOT":0},{"OBJECT_NAME":"KUIPER-00141","OBJECT_ID":"2025-228V","EPOCH":"2026-03-28T17:26:13.651296","MEAN_MOTION":14.79911298,"ECCENTRICITY":5.154e-5,"INCLINATION":51.9024,"RA_OF_ASC_NODE":256.5108,"ARG_OF_PERICENTER":82.5294,"MEAN_ANOMALY":277.5727,"EPHEMERIS_TYPE":0,"CLASSIFICATION_TYPE":"U","NORAD_CAT_ID":65966,"ELEMENT_SET_NO":999,"REV_AT_EPOCH":2632,"BSTAR":0.00061157529,"MEAN_MOTION_DOT":4.442e-5,"MEAN_MOTION_DDOT":0},{"OBJECT_NAME":"KUIPER-00146","OBJECT_ID":"2025-228W","EPOCH":"2026-03-29T03:54:14.394240","MEAN_MOTION":14.79894061,"ECCENTRICITY":0.0001039,"INCLINATION":51.9023,"RA_OF_ASC_NODE":257.0896,"ARG_OF_PERICENTER":59.6847,"MEAN_ANOMALY":300.4218,"EPHEMERIS_TYPE":0,"CLASSIFICATION_TYPE":"U","NORAD_CAT_ID":65967,"ELEMENT_SET_NO":999,"REV_AT_EPOCH":2635,"BSTAR":0.00074465,"MEAN_MOTION_DOT":5.455e-5,"MEAN_MOTION_DDOT":0},{"OBJECT_NAME":"KUIPER-00149","OBJECT_ID":"2025-228X","EPOCH":"2026-03-28T20:44:34.260288","MEAN_MOTION":14.79955665,"ECCENTRICITY":6.899e-5,"INCLINATION":51.9009,"RA_OF_ASC_NODE":253.3148,"ARG_OF_PERICENTER":126.2336,"MEAN_ANOMALY":233.869,"EPHEMERIS_TYPE":0,"CLASSIFICATION_TYPE":"U","NORAD_CAT_ID":65968,"ELEMENT_SET_NO":999,"REV_AT_EPOCH":2638,"BSTAR":0.00063180288,"MEAN_MOTION_DOT":4.601e-5,"MEAN_MOTION_DDOT":0},{"OBJECT_NAME":"KUIPER-00154","OBJECT_ID":"2025-228Y","EPOCH":"2026-03-29T04:06:07.239168","MEAN_MOTION":14.79917636,"ECCENTRICITY":7.46e-5,"INCLINATION":51.8992,"RA_OF_ASC_NODE":249.4616,"ARG_OF_PERICENTER":97.1363,"MEAN_ANOMALY":262.9684,"EPHEMERIS_TYPE":0,"CLASSIFICATION_TYPE":"U","NORAD_CAT_ID":65969,"ELEMENT_SET_NO":999,"REV_AT_EPOCH":2646,"BSTAR":0.00081871,"MEAN_MOTION_DOT":6.023e-5,"MEAN_MOTION_DDOT":0},{"OBJECT_NAME":"KUIPER-00157","OBJECT_ID":"2025-228Z","EPOCH":"2026-03-28T19:55:55.575840","MEAN_MOTION":14.79957068,"ECCENTRICITY":2.752e-5,"INCLINATION":51.9016,"RA_OF_ASC_NODE":253.5787,"ARG_OF_PERICENTER":89.2677,"MEAN_ANOMALY":270.8317,"EPHEMERIS_TYPE":0,"CLASSIFICATION_TYPE":"U","NORAD_CAT_ID":65970,"ELEMENT_SET_NO":999,"REV_AT_EPOCH":2637,"BSTAR":0.00065233508,"MEAN_MOTION_DOT":4.758e-5,"MEAN_MOTION_DDOT":0},{"OBJECT_NAME":"KUIPER-00144","OBJECT_ID":"2025-301A","EPOCH":"2026-03-29T04:00:01.999584","MEAN_MOTION":15.19776537,"ECCENTRICITY":0.0005902,"INCLINATION":51.8832,"RA_OF_ASC_NODE":331.5444,"ARG_OF_PERICENTER":100.0991,"MEAN_ANOMALY":1.5987,"EPHEMERIS_TYPE":0,"CLASSIFICATION_TYPE":"U","NORAD_CAT_ID":67133,"ELEMENT_SET_NO":999,"REV_AT_EPOCH":449,"BSTAR":0.002429,"MEAN_MOTION_DOT":0.00052751,"MEAN_MOTION_DDOT":0},{"OBJECT_NAME":"KUIPER-00164","OBJECT_ID":"2025-301B","EPOCH":"2026-03-29T04:00:01.999584","MEAN_MOTION":14.78744631,"ECCENTRICITY":0.0002696,"INCLINATION":51.9044,"RA_OF_ASC_NODE":339.2992,"ARG_OF_PERICENTER":45.8299,"MEAN_ANOMALY":45.135,"EPHEMERIS_TYPE":0,"CLASSIFICATION_TYPE":"U","NORAD_CAT_ID":67134,"ELEMENT_SET_NO":999,"REV_AT_EPOCH":587,"BSTAR":0.003868,"MEAN_MOTION_DOT":0.00028571,"MEAN_MOTION_DDOT":0}]
