KUIPER-00127            
1 65956U 25228K   26087.77746755  .00002845  00000+0  43669-3 0  9990
2 65956  51.8991 268.1005 0001041 255.3297 104.7548 14.76331919 26176
KUIPER-00128            
1 65957U 25228L   26087.67933657 -.00001135  00000+0 -11988-3 0  9991
2 65957  51.9000 269.1487 0000719 107.1491 252.9550 14.79937497 26147
KUIPER-00129            
1 65958U 25228M   26087.78604044  .00004413  00000+0  60661-3 0  9991
2 65958  51.9002 263.6606 0001010 108.8992 251.2080 14.79993297 26231
KUIPER-00130            
1 65959U 25228N   26087.74960840  .00004097  00000+0  56611-3 0  9995
2 65959  51.9016 266.3327 0000666 109.1943 250.9091 14.79935850 16488
KUIPER-00134            
1 65960U 25228P   26088.19792193  .00065081  00000+0  16376-2 0  9994
2 65960  51.8722 225.8263 0005452  26.1013 334.0248 15.39307402 26792
KUIPER-00135            
1 65961U 25228Q   26088.18855901  .00005362  00000+0  73174-3 0  9997
2 65961  51.9014 264.4532 0000677 104.2886 255.8151 14.79938357 26252
KUIPER-00136            
1 65962U 25228R   26087.75230560  .00004060  00000+0  56125-3 0  9999
2 65962  51.8996 263.8522 0000767 137.5907 222.5115 14.79932111 26226
KUIPER-00137            
1 65963U 25228S   26088.16010622  .00001800  00000+0  26500-3 0  9994
2 65963  51.9023 259.5143 0000215  84.2537 275.8450 14.79935630 26328
KUIPER-00138            
1 65964U 25228T   26088.19648944  .00005617  00000+0  76472-3 0  9995
2 65964  51.8982 256.8304 0000781 105.6090 254.4958 14.79962432 26361
KUIPER-00140            
1 65965U 25228U   26088.19393948  .00005546  00000+0  75563-3 0  9998
2 65965  51.8995 259.4266 0000689 115.9048 244.1985 14.79945977 26323
KUIPER-00141            
1 65966U 25228V   26087.72654689  .00004442  00000+0  61158-3 0  9998
2 65966  51.9024 256.5108 0000515  82.5294 277.5727 14.79911298 26324
KUIPER-00146            
1 65967U 25228W   26088.16266660  .00005455  00000+0  74465-3 0  9996
2 65967  51.9023 257.0896 0001039  59.6847 300.4218 14.79894061 26357
KUIPER-00149            
1 65968U 25228X   26087.86428542  .00004601  00000+0  63180-3 0  9996
2 65968  51.9009 253.3148 0000689 126.2336 233.8690 14.79955665 26389
KUIPER-00154            
1 65969U 25228Y   26088.17091712  .00006023  00000+0  81871-3 0  9994
2 65969  51.8992 249.4616 0000746  97.1363 262.9684 14.79917636 26467
KUIPER-00157            
1 65970U 25228Z   26087.83050435  .00004758  00000+0  65234-3 0  9993
2 65970  51.9016 253.5787 0000275  89.2677 270.8317 14.79957068 26373
KUIPER-00144            
1 67133U 25301A   26088.16668981  .00052751  00000+0  24290-2 0  9998
2 67133  51.8832 331.5444 0005902 100.0991   1.5987 15.19776537  4497
KUIPER-00164            
1 67134U 25301B   26088.16668981  .00028571  00000+0  38680-2 0  9990
2 67134  51.9044 339.2992 0002696  45.8299  45.1350 14.78744631  5876
